{
  "type": "FeatureCollection",
  "features": [
    {
      "type": "Feature",
      "properties": {
        "norad_id": 41866,
        "name": "GOES 16",
        "group": "weather",
        "lat": 0.07061369154149805,
        "lon": 148.70972501501763,
        "alt_km": 35793.030826763184,
        "timestamp": "2025-12-27T10:28:58.433127+00:00",
        "meta_object_name": "GOES 16",
        "meta_object_id": "2016-071A",
        "meta_epoch": "2025-12-27T04:27:00.371808",
        "meta_mean_motion": 1.00271577,
        "meta_eccentricity": 0.0003296,
        "meta_inclination": 0.0809,
        "meta_ra_of_asc_node": 100.6164,
        "meta_arg_of_pericenter": 167.6787,
        "meta_mean_anomaly": 149.7154,
        "meta_ephemeris_type": 0,
        "meta_classification_type": "U",
        "meta_norad_cat_id": 41866,
        "meta_element_set_no": 999,
        "meta_rev_at_epoch": 3337,
        "meta_bstar": 0,
        "meta_mean_motion_dot": -6.9e-07,
        "meta_mean_motion_ddot": 0,
        "tle_line1": "1 41866U 16071A   25361.18542097 -.00000069  00000+0  00000+0 0  9997",
        "tle_line2": "2 41866   0.0809 100.6164 0003296 167.6787 149.7154  1.00271577 33371"
      },
      "geometry": {
        "type": "Point",
        "coordinates": [
          148.70972501501763,
          0.07061369154149805
        ]
      }
    },
    {
      "type": "Feature",
      "properties": {
        "norad_id": 41882,
        "name": "FENGYUN 4A",
        "group": "weather",
        "lat": -1.7096954816129752,
        "lon": 16.97584098342906,
        "alt_km": 35805.86205350615,
        "timestamp": "2025-12-27T10:28:58.433151+00:00",
        "meta_object_name": "FENGYUN 4A",
        "meta_object_id": "2016-077A",
        "meta_epoch": "2025-12-26T09:22:21.494784",
        "meta_mean_motion": 1.00262391,
        "meta_eccentricity": 0.0004534,
        "meta_inclination": 1.8816,
        "meta_ra_of_asc_node": 82.2577,
        "meta_arg_of_pericenter": 143.1389,
        "meta_mean_anomaly": 133.8992,
        "meta_ephemeris_type": 0,
        "meta_classification_type": "U",
        "meta_norad_cat_id": 41882,
        "meta_element_set_no": 999,
        "meta_rev_at_epoch": 3319,
        "meta_bstar": 0,
        "meta_mean_motion_dot": -3.36e-06,
        "meta_mean_motion_ddot": 0,
        "tle_line1": "1 41882U 16077A   25360.39052656 -.00000336  00000+0  00000+0 0  9997",
        "tle_line2": "2 41882   1.8816  82.2577 0004534 143.1389 133.8992  1.00262391 33190"
      },
      "geometry": {
        "type": "Point",
        "coordinates": [
          16.97584098342906,
          -1.7096954816129752
        ]
      }
    },
    {
      "type": "Feature",
      "properties": {
        "norad_id": 41884,
        "name": "CYGFM05",
        "group": "weather",
        "lat": -21.99791097612594,
        "lon": -84.23637044554364,
        "alt_km": 416.3133249533903,
        "timestamp": "2025-12-27T10:28:58.433168+00:00",
        "meta_object_name": "CYGFM05",
        "meta_object_id": "2016-078A",
        "meta_epoch": "2025-12-27T04:28:04.537632",
        "meta_mean_motion": 15.48195074,
        "meta_eccentricity": 0.0010291,
        "meta_inclination": 34.96,
        "meta_ra_of_asc_node": 312.7275,
        "meta_arg_of_pericenter": 307.1889,
        "meta_mean_anomaly": 52.7893,
        "meta_ephemeris_type": 0,
        "meta_classification_type": "U",
        "meta_norad_cat_id": 41884,
        "meta_element_set_no": 999,
        "meta_rev_at_epoch": 50200,
        "meta_bstar": 0.00044895,
        "meta_mean_motion_dot": 0.0002443,
        "meta_mean_motion_ddot": 0,
        "tle_line1": "1 41884U 16078A   25361.18616363  .00024430  00000+0  44895-3 0  9993",
        "tle_line2": "2 41884  34.9600 312.7275 0010291 307.1889  52.7893 15.48195074502000"
      },
      "geometry": {
        "type": "Point",
        "coordinates": [
          -84.23637044554364,
          -21.99791097612594
        ]
      }
    },
    {
      "type": "Feature",
      "properties": {
        "norad_id": 41885,
        "name": "CYGFM04",
        "group": "weather",
        "lat": -8.352888653167145,
        "lon": -86.70775304713165,
        "alt_km": 407.8174048677138,
        "timestamp": "2025-12-27T10:28:58.433185+00:00",
        "meta_object_name": "CYGFM04",
        "meta_object_id": "2016-078B",
        "meta_epoch": "2025-12-27T02:49:19.249824",
        "meta_mean_motion": 15.50994926,
        "meta_eccentricity": 0.0008788,
        "meta_inclination": 34.9346,
        "meta_ra_of_asc_node": 287.5315,
        "meta_arg_of_pericenter": 331.5011,
        "meta_mean_anomaly": 28.523,
        "meta_ephemeris_type": 0,
        "meta_classification_type": "U",
        "meta_norad_cat_id": 41885,
        "meta_element_set_no": 999,
        "meta_rev_at_epoch": 50217,
        "meta_bstar": 0.00044934,
        "meta_mean_motion_dot": 0.00026999,
        "meta_mean_motion_ddot": 0,
        "tle_line1": "1 41885U 16078B   25361.11758391  .00026999  00000+0  44934-3 0  9991",
        "tle_line2": "2 41885  34.9346 287.5315 0008788 331.5011  28.5230 15.50994926502178"
      },
      "geometry": {
        "type": "Point",
        "coordinates": [
          -86.70775304713165,
          -8.352888653167145
        ]
      }
    },
    {
      "type": "Feature",
      "properties": {
        "norad_id": 41886,
        "name": "CYGFM02",
        "group": "weather",
        "lat": 33.17353186628488,
        "lon": -7.001054633239763,
        "alt_km": 404.217171751543,
        "timestamp": "2025-12-27T10:28:58.433202+00:00",
        "meta_object_name": "CYGFM02",
        "meta_object_id": "2016-078C",
        "meta_epoch": "2025-12-27T03:59:50.972352",
        "meta_mean_motion": 15.5242311,
        "meta_eccentricity": 0.0010354,
        "meta_inclination": 34.9434,
        "meta_ra_of_asc_node": 285.3465,
        "meta_arg_of_pericenter": 333.9201,
        "meta_mean_anomaly": 26.0999,
        "meta_ephemeris_type": 0,
        "meta_classification_type": "U",
        "meta_norad_cat_id": 41886,
        "meta_element_set_no": 999,
        "meta_rev_at_epoch": 50231,
        "meta_bstar": 0.00045944,
        "meta_mean_motion_dot": 0.0002909,
        "meta_mean_motion_ddot": 0,
        "tle_line1": "1 41886U 16078C   25361.16656218  .00029090  00000+0  45944-3 0  9999",
        "tle_line2": "2 41886  34.9434 285.3465 0010354 333.9201  26.0999 15.52423110502313"
      },
      "geometry": {
        "type": "Point",
        "coordinates": [
          -7.001054633239763,
          33.17353186628488
        ]
      }
    },
    {
      "type": "Feature",
      "properties": {
        "norad_id": 41887,
        "name": "CYGFM01",
        "group": "weather",
        "lat": 19.0420065054172,
        "lon": -17.041527183956518,
        "alt_km": 416.66735396568856,
        "timestamp": "2025-12-27T10:28:58.433218+00:00",
        "meta_object_name": "CYGFM01",
        "meta_object_id": "2016-078D",
        "meta_epoch": "2025-12-27T04:08:44.941632",
        "meta_mean_motion": 15.48790077,
        "meta_eccentricity": 0.0010091,
        "meta_inclination": 34.9433,
        "meta_ra_of_asc_node": 315.062,
        "meta_arg_of_pericenter": 299.465,
        "meta_mean_anomaly": 60.5065,
        "meta_ephemeris_type": 0,
        "meta_classification_type": "U",
        "meta_norad_cat_id": 41887,
        "meta_element_set_no": 999,
        "meta_rev_at_epoch": 50194,
        "meta_bstar": 0.00043516,
        "meta_mean_motion_dot": 0.00024178,
        "meta_mean_motion_ddot": 0,
        "tle_line1": "1 41887U 16078D   25361.17274238  .00024178  00000+0  43516-3 0  9994",
        "tle_line2": "2 41887  34.9433 315.0620 0010091 299.4650  60.5065 15.48790077501948"
      },
      "geometry": {
        "type": "Point",
        "coordinates": [
          -17.041527183956518,
          19.0420065054172
        ]
      }
    },
    {
      "type": "Feature",
      "properties": {
        "norad_id": 41888,
        "name": "CYGFM08",
        "group": "weather",
        "lat": 17.565716954479562,
        "lon": 89.19368074666878,
        "alt_km": 420.4916764468344,
        "timestamp": "2025-12-27T10:28:58.433235+00:00",
        "meta_object_name": "CYGFM08",
        "meta_object_id": "2016-078E",
        "meta_epoch": "2025-12-27T03:39:50.071968",
        "meta_mean_motion": 15.50034752,
        "meta_eccentricity": 0.0011163,
        "meta_inclination": 34.9459,
        "meta_ra_of_asc_node": 298.0141,
        "meta_arg_of_pericenter": 323.1952,
        "meta_mean_anomaly": 36.8003,
        "meta_ephemeris_type": 0,
        "meta_classification_type": "U",
        "meta_norad_cat_id": 41888,
        "meta_element_set_no": 999,
        "meta_rev_at_epoch": 50217,
        "meta_bstar": 0.00045658,
        "meta_mean_motion_dot": 0.00026534,
        "meta_mean_motion_ddot": 0,
        "tle_line1": "1 41888U 16078E   25361.15266287  .00026534  00000+0  45658-3 0  9995",
        "tle_line2": "2 41888  34.9459 298.0141 0011163 323.1952  36.8003 15.50034752502174"
      },
      "geometry": {
        "type": "Point",
        "coordinates": [
          89.19368074666878,
          17.565716954479562
        ]
      }
    }
  ]
}